INTELSAT 902 (IS-902)   
1 26900U 01039A   26095.80640223 -.00000280  00000+0  00000+0 0  9996
2 26900   5.9356  72.6514 0004486 300.4130  61.2509  1.00271313 89979
INTELSAT 904 (IS-904)   
1 27380U 02007A   26095.81004223 -.00000221  00000+0  00000+0 0  9995
2 27380   6.7402  70.0397 0007581 327.7844  56.4296  1.00272728 51044
DIRECTV 5 (TEMPO 1)     
1 27426U 02023A   26095.58054691 -.00000054  00000+0  00000+0 0  9996
2 27426   4.6929  76.1990 0003837 312.1695 264.4136  1.00272983 87398
INTELSAT 905 (IS-905)   
1 27438U 02027A   26093.07946694  .00000094  00000+0  00000+0 0  9991
2 27438   6.5662  70.6915 0003267 315.6989  56.4288  1.00273159 50611
GALAXY 3C (G-3C)        
1 27445U 02030A   26095.58358025 -.00000150  00000+0  00000+0 0  9990
2 27445   3.5429  78.9713 0001663  20.8015 209.3418  1.00271971 45761
INTELSAT 906 (IS-906)   
1 27513U 02041A   26095.55157656  .00000016  00000+0  00000+0 0  9992
2 27513   5.6192  73.7994 0003350 311.7673  70.9983  1.00272344 86307
GALAXY 13 (HORIZONS-1)  
1 27954U 03044A   26095.71522895  .00000135  00000+0  00000+0 0  9996
2 27954   1.2316  84.7555 0002148 286.0129 290.7256  1.00269778 45841
INTELSAT 10-02          
1 28358U 04022A   26095.81610892 -.00000009  00000+0  00000+0 0  9999
2 28358   0.0386  44.0998 0001937  30.6728  52.1332  1.00272977 79833
DIRECTV 8               
1 28659U 05019A   26095.65012299  .00000003  00000+0  00000+0 0  9992
2 28659   0.0144 235.3519 0003569 153.9412 279.6487  1.00272255 76344
GALAXY 28 (G-28)        
1 28702U 05022A   26095.24048986 -.00000198  00000+0  00000+0 0  9998
2 28702   3.1109  79.8195 0002279 301.6767 231.5259  1.00270483 51248
GALAXY 16 (G-16)        
1 29236U 06023A   26095.65402301 -.00000125  00000+0  00000+0 0  9993
2 29236   0.0231 223.0129 0002819 161.4905 305.8907  1.00272327 72246
DIRECTV 9S              
1 29494U 06043A   26095.65358968 -.00000111  00000+0  00000+0 0  9995
2 29494   2.2336  81.7577 0003864 311.2812 295.0095  1.00272043 50655
GALAXY 17 (G-17)        
1 31307U 07016B   26095.79946887 -.00000203  00000+0  00000+0 0  9992
2 31307   2.7890  80.7906 0004107 309.7716   6.3362  1.00271469 69079
INTELSAT 11 (IS-11)     
1 32253U 07044B   26095.88358310  .00000024  00000+0  00000+0 0  9992
2 32253   3.3772  79.5298 0002660 222.8495 293.6513  0.99047676 67735
HORIZONS-2              
1 32388U 07063B   26095.80163554 -.00000251  00000+0  00000+0 0  9991
2 32388   2.4154  81.5040 0002880 307.8296  19.5415  1.00270419 67083
DIRECTV 11              
1 32729U 08013A   26095.58271360 -.00000124  00000+0  00000+0 0  9995
2 32729   0.0206  28.7425 0000222 327.1655 308.5549  1.00271494 44860
GALAXY 18 (G-18)        
1 32951U 08024A   26095.64934297  .00000000  00000+0  00000+0 0  9998
2 32951   0.0160 198.8727 0003106 183.4320 282.4150  1.00271886 45129
