[{"OBJECT_NAME":"INTELSAT 902 (IS-902)","OBJECT_ID":"2001-039A","EPOCH":"2026-04-05T19:21:13.152672","MEAN_MOTION":1.00271313,"ECCENTRICITY":0.0004486,"INCLINATION":5.9356,"RA_OF_ASC_NODE":72.6514,"ARG_OF_PERICENTER":300.413,"MEAN_ANOMALY":61.2509,"EPHEMERIS_TYPE":0,"CLASSIFICATION_TYPE":"U","NORAD_CAT_ID":26900,"ELEMENT_SET_NO":999,"REV_AT_EPOCH":8997,"BSTAR":0,"MEAN_MOTION_DOT":-2.8e-6,"MEAN_MOTION_DDOT":0},{"OBJECT_NAME":"INTELSAT 904 (IS-904)","OBJECT_ID":"2002-007A","EPOCH":"2026-04-05T19:26:27.648672","MEAN_MOTION":1.00272728,"ECCENTRICITY":0.0007581,"INCLINATION":6.7402,"RA_OF_ASC_NODE":70.0397,"ARG_OF_PERICENTER":327.7844,"MEAN_ANOMALY":56.4296,"EPHEMERIS_TYPE":0,"CLASSIFICATION_TYPE":"U","NORAD_CAT_ID":27380,"ELEMENT_SET_NO":999,"REV_AT_EPOCH":5104,"BSTAR":0,"MEAN_MOTION_DOT":-2.21e-6,"MEAN_MOTION_DDOT":0},{"OBJECT_NAME":"DIRECTV 5 (TEMPO 1)","OBJECT_ID":"2002-023A","EPOCH":"2026-04-05T13:55:59.253024","MEAN_MOTION":1.00272983,"ECCENTRICITY":0.0003837,"INCLINATION":4.6929,"RA_OF_ASC_NODE":76.199,"ARG_OF_PERICENTER":312.1695,"MEAN_ANOMALY":264.4136,"EPHEMERIS_TYPE":0,"CLASSIFICATION_TYPE":"U","NORAD_CAT_ID":27426,"ELEMENT_SET_NO":999,"REV_AT_EPOCH":8739,"BSTAR":0,"MEAN_MOTION_DOT":-5.4e-7,"MEAN_MOTION_DDOT":0},{"OBJECT_NAME":"INTELSAT 905 (IS-905)","OBJECT_ID":"2002-027A","EPOCH":"2026-04-03T01:54:25.943616","MEAN_MOTION":1.00273159,"ECCENTRICITY":0.00032672,"INCLINATION":6.5662,"RA_OF_ASC_NODE":70.6915,"ARG_OF_PERICENTER":315.6989,"MEAN_ANOMALY":56.4288,"EPHEMERIS_TYPE":0,"CLASSIFICATION_TYPE":"U","NORAD_CAT_ID":27438,"ELEMENT_SET_NO":999,"REV_AT_EPOCH":5061,"BSTAR":0,"MEAN_MOTION_DOT":9.4e-7,"MEAN_MOTION_DDOT":0},{"OBJECT_NAME":"GALAXY 3C (G-3C)","OBJECT_ID":"2002-030A","EPOCH":"2026-04-05T14:00:21.333600","MEAN_MOTION":1.00271971,"ECCENTRICITY":0.0001663,"INCLINATION":3.5429,"RA_OF_ASC_NODE":78.9713,"ARG_OF_PERICENTER":20.8015,"MEAN_ANOMALY":209.3418,"EPHEMERIS_TYPE":0,"CLASSIFICATION_TYPE":"U","NORAD_CAT_ID":27445,"ELEMENT_SET_NO":999,"REV_AT_EPOCH":4576,"BSTAR":0,"MEAN_MOTION_DOT":-1.5e-6,"MEAN_MOTION_DDOT":0},{"OBJECT_NAME":"INTELSAT 906 (IS-906)","OBJECT_ID":"2002-041A","EPOCH":"2026-04-05T13:14:16.214784","MEAN_MOTION":1.00272344,"ECCENTRICITY":0.00033504,"INCLINATION":5.6192,"RA_OF_ASC_NODE":73.7994,"ARG_OF_PERICENTER":311.7673,"MEAN_ANOMALY":70.9983,"EPHEMERIS_TYPE":0,"CLASSIFICATION_TYPE":"U","NORAD_CAT_ID":27513,"ELEMENT_SET_NO":999,"REV_AT_EPOCH":8630,"BSTAR":0,"MEAN_MOTION_DOT":1.6e-7,"MEAN_MOTION_DDOT":0},{"OBJECT_NAME":"GALAXY 13 (HORIZONS-1)","OBJECT_ID":"2003-044A","EPOCH":"2026-04-05T17:09:55.781280","MEAN_MOTION":1.00269778,"ECCENTRICITY":0.0002148,"INCLINATION":1.2316,"RA_OF_ASC_NODE":84.7555,"ARG_OF_PERICENTER":286.0129,"MEAN_ANOMALY":290.7256,"EPHEMERIS_TYPE":0,"CLASSIFICATION_TYPE":"U","NORAD_CAT_ID":27954,"ELEMENT_SET_NO":999,"REV_AT_EPOCH":4584,"BSTAR":0,"MEAN_MOTION_DOT":1.35e-6,"MEAN_MOTION_DDOT":0},{"OBJECT_NAME":"INTELSAT 10-02","OBJECT_ID":"2004-022A","EPOCH":"2026-04-05T19:35:11.810688","MEAN_MOTION":1.00272977,"ECCENTRICITY":0.0001937,"INCLINATION":0.0386,"RA_OF_ASC_NODE":44.0998,"ARG_OF_PERICENTER":30.6728,"MEAN_ANOMALY":52.1332,"EPHEMERIS_TYPE":0,"CLASSIFICATION_TYPE":"U","NORAD_CAT_ID":28358,"ELEMENT_SET_NO":999,"REV_AT_EPOCH":7983,"BSTAR":0,"MEAN_MOTION_DOT":-9.0e-8,"MEAN_MOTION_DDOT":0},{"OBJECT_NAME":"DIRECTV 8","OBJECT_ID":"2005-019A","EPOCH":"2026-04-05T15:36:10.626336","MEAN_MOTION":1.00272255,"ECCENTRICITY":0.0003569,"INCLINATION":0.0144,"RA_OF_ASC_NODE":235.3519,"ARG_OF_PERICENTER":153.9412,"MEAN_ANOMALY":279.6487,"EPHEMERIS_TYPE":0,"CLASSIFICATION_TYPE":"U","NORAD_CAT_ID":28659,"ELEMENT_SET_NO":999,"REV_AT_EPOCH":7634,"BSTAR":0,"MEAN_MOTION_DOT":3.0e-8,"MEAN_MOTION_DDOT":0},{"OBJECT_NAME":"GALAXY 28 (G-28)","OBJECT_ID":"2005-022A","EPOCH":"2026-04-05T05:46:18.323904","MEAN_MOTION":1.00270483,"ECCENTRICITY":0.0002279,"INCLINATION":3.1109,"RA_OF_ASC_NODE":79.8195,"ARG_OF_PERICENTER":301.6767,"MEAN_ANOMALY":231.5259,"EPHEMERIS_TYPE":0,"CLASSIFICATION_TYPE":"U","NORAD_CAT_ID":28702,"ELEMENT_SET_NO":999,"REV_AT_EPOCH":5124,"BSTAR":0,"MEAN_MOTION_DOT":-1.98e-6,"MEAN_MOTION_DDOT":0},{"OBJECT_NAME":"GALAXY 16 (G-16)","OBJECT_ID":"2006-023A","EPOCH":"2026-04-05T15:41:47.588064","MEAN_MOTION":1.00272327,"ECCENTRICITY":0.0002819,"INCLINATION":0.0231,"RA_OF_ASC_NODE":223.0129,"ARG_OF_PERICENTER":161.4905,"MEAN_ANOMALY":305.8907,"EPHEMERIS_TYPE":0,"CLASSIFICATION_TYPE":"U","NORAD_CAT_ID":29236,"ELEMENT_SET_NO":999,"REV_AT_EPOCH":7224,"BSTAR":0,"MEAN_MOTION_DOT":-1.25e-6,"MEAN_MOTION_DDOT":0},{"OBJECT_NAME":"DIRECTV 9S","OBJECT_ID":"2006-043A","EPOCH":"2026-04-05T15:41:10.148352","MEAN_MOTION":1.00272043,"ECCENTRICITY":0.0003864,"INCLINATION":2.2336,"RA_OF_ASC_NODE":81.7577,"ARG_OF_PERICENTER":311.2812,"MEAN_ANOMALY":295.0095,"EPHEMERIS_TYPE":0,"CLASSIFICATION_TYPE":"U","NORAD_CAT_ID":29494,"ELEMENT_SET_NO":999,"REV_AT_EPOCH":5065,"BSTAR":0,"MEAN_MOTION_DOT":-1.11e-6,"MEAN_MOTION_DDOT":0},{"OBJECT_NAME":"GALAXY 17 (G-17)","OBJECT_ID":"2007-016B","EPOCH":"2026-04-05T19:11:14.110368","MEAN_MOTION":1.00271469,"ECCENTRICITY":0.0004107,"INCLINATION":2.789,"RA_OF_ASC_NODE":80.7906,"ARG_OF_PERICENTER":309.7716,"MEAN_ANOMALY":6.3362,"EPHEMERIS_TYPE":0,"CLASSIFICATION_TYPE":"U","NORAD_CAT_ID":31307,"ELEMENT_SET_NO":999,"REV_AT_EPOCH":6907,"BSTAR":0,"MEAN_MOTION_DOT":-2.03e-6,"MEAN_MOTION_DDOT":0},{"OBJECT_NAME":"INTELSAT 11 (IS-11)","OBJECT_ID":"2007-044B","EPOCH":"2026-04-05T21:12:21.579840","MEAN_MOTION":0.99047676,"ECCENTRICITY":0.000266,"INCLINATION":3.3772,"RA_OF_ASC_NODE":79.5298,"ARG_OF_PERICENTER":222.8495,"MEAN_ANOMALY":293.6513,"EPHEMERIS_TYPE":0,"CLASSIFICATION_TYPE":"U","NORAD_CAT_ID":32253,"ELEMENT_SET_NO":999,"REV_AT_EPOCH":6773,"BSTAR":0,"MEAN_MOTION_DOT":2.4e-7,"MEAN_MOTION_DDOT":0},{"OBJECT_NAME":"HORIZONS-2","OBJECT_ID":"2007-063B","EPOCH":"2026-04-05T19:14:21.310656","MEAN_MOTION":1.00270419,"ECCENTRICITY":0.000288,"INCLINATION":2.4154,"RA_OF_ASC_NODE":81.504,"ARG_OF_PERICENTER":307.8296,"MEAN_ANOMALY":19.5415,"EPHEMERIS_TYPE":0,"CLASSIFICATION_TYPE":"U","NORAD_CAT_ID":32388,"ELEMENT_SET_NO":999,"REV_AT_EPOCH":6708,"BSTAR":0,"MEAN_MOTION_DOT":-2.51e-6,"MEAN_MOTION_DDOT":0},{"OBJECT_NAME":"DIRECTV 11","OBJECT_ID":"2008-013A","EPOCH":"2026-04-05T13:59:06.455040","MEAN_MOTION":1.00271494,"ECCENTRICITY":2.22e-5,"INCLINATION":0.0206,"RA_OF_ASC_NODE":28.7425,"ARG_OF_PERICENTER":327.1655,"MEAN_ANOMALY":308.5549,"EPHEMERIS_TYPE":0,"CLASSIFICATION_TYPE":"U","NORAD_CAT_ID":32729,"ELEMENT_SET_NO":999,"REV_AT_EPOCH":4486,"BSTAR":0,"MEAN_MOTION_DOT":-1.24e-6,"MEAN_MOTION_DDOT":0},{"OBJECT_NAME":"GALAXY 18 (G-18)","OBJECT_ID":"2008-024A","EPOCH":"2026-04-05T15:35:03.232608","MEAN_MOTION":1.00271886,"ECCENTRICITY":0.0003106,"INCLINATION":0.016,"RA_OF_ASC_NODE":198.8727,"ARG_OF_PERICENTER":183.432,"MEAN_ANOMALY":282.415,"EPHEMERIS_TYPE":0,"CLASSIFICATION_TYPE":"U","NORAD_CAT_ID":32951,"ELEMENT_SET_NO":999,"REV_AT_EPOCH":4512,"BSTAR":0,"MEAN_MOTION_DOT":0,"MEAN_MOTION_DDOT":0}]
